{"type": "FeatureCollection", "features": [ {"type": "Feature", "properties": {"norad_id": 66635, "name": "STARLINK-35955", "group": "last-30-days", "lat": 47.41888848834519, "lon": -173.04333264243076, "alt_km": 439.8322772193278, "timestamp": "2025-12-24T07:45:04.930874+00:00", "meta": {"OBJECT_NAME": "STARLINK-35955", "OBJECT_ID": "2025-271U", "EPOCH": "2025-12-23T20:33:23.259744", "MEAN_MOTION": 15.39628301, "ECCENTRICITY": 0.00015054, "INCLINATION": 53.1618, "RA_OF_ASC_NODE": 134.489, "ARG_OF_PERICENTER": 92.2253, "MEAN_ANOMALY": 267.8924, "EPHEMERIS_TYPE": 0, "CLASSIFICATION_TYPE": "U", "NORAD_CAT_ID": 66635, "ELEMENT_SET_NO": 999, "REV_AT_EPOCH": 592, "BSTAR": 0.0010050107, "MEAN_MOTION_DOT": 0.00040022, "MEAN_MOTION_DDOT": 0}, "tle": {"line1": "1 66635U 25271U   25357.85651921  .00040022  00000+0  10050-2 0  9997", "line2": "2 66635  53.1618 134.4890 0001505  92.2253 267.8924 15.39628301  5927"}}, "geometry": {"type": "Point", "coordinates": [-173.04333264243076, 47.41888848834519]}}, {"type": "Feature", "properties": {"norad_id": 66636, "name": "STARLINK-35968", "group": "last-30-days", "lat": 31.822469698001946, "lon": 160.06513113348365, "alt_km": 442.47857636408753, "timestamp": "2025-12-24T07:45:04.930885+00:00", "meta": {"OBJECT_NAME": "STARLINK-35968", "OBJECT_ID": "2025-271V", "EPOCH": "2025-12-23T20:40:04.403712", "MEAN_MOTION": 15.39659771, "ECCENTRICITY": 0.00010839, "INCLINATION": 53.1598, "RA_OF_ASC_NODE": 134.5153, "ARG_OF_PERICENTER": 75.8209, "MEAN_ANOMALY": 284.2917, "EPHEMERIS_TYPE": 0, "CLASSIFICATION_TYPE": "U", "NORAD_CAT_ID": 66636, "ELEMENT_SET_NO": 999, "REV_AT_EPOCH": 592, "BSTAR": 0.00094849799, "MEAN_MOTION_DOT": 0.00037777, "MEAN_MOTION_DDOT": 0}, "tle": {"line1": "1 66636U 25271V   25357.86116208  .00037777  00000+0  94850-3 0  9997", "line2": "2 66636  53.1598 134.5153 0001083  75.8209 284.2917 15.39659771  5927"}}, "geometry": {"type": "Point", "coordinates": [160.06513113348365, 31.822469698001946]}}, {"type": "Feature", "properties": {"norad_id": 66637, "name": "STARLINK-35953", "group": "last-30-days", "lat": 53.049063151717505, "lon": -133.04510241463117, "alt_km": 439.4854222402628, "timestamp": "2025-12-24T07:45:04.930897+00:00", "meta": {"OBJECT_NAME": "STARLINK-35953", "OBJECT_ID": "2025-271W", "EPOCH": "2025-12-23T18:53:13.265376", "MEAN_MOTION": 15.39655664, "ECCENTRICITY": 5.471e-05, "INCLINATION": 53.1619, "RA_OF_ASC_NODE": 134.7643, "ARG_OF_PERICENTER": 93.4221, "MEAN_ANOMALY": 266.6847, "EPHEMERIS_TYPE": 0, "CLASSIFICATION_TYPE": "U", "NORAD_CAT_ID": 66637, "ELEMENT_SET_NO": 999, "REV_AT_EPOCH": 591, "BSTAR": 0.0011113669, "MEAN_MOTION_DOT": 0.00044365, "MEAN_MOTION_DDOT": 0}, "tle": {"line1": "1 66637U 25271W   25357.78695909  .00044365  00000+0  11114-2 0  9991", "line2": "2 66637  53.1619 134.7643 0000547  93.4221 266.6847 15.39655664  5914"}}, "geometry": {"type": "Point", "coordinates": [-133.04510241463117, 53.049063151717505]}}, {"type": "Feature", "properties": {"norad_id": 66638, "name": "STARLINK-35972", "group": "last-30-days", "lat": 27.76327723993424, "lon": -71.10999687126635, "alt_km": 443.5871997901704, "timestamp": "2025-12-24T07:45:04.930907+00:00", "meta": {"OBJECT_NAME": "STARLINK-35972", "OBJECT_ID": "2025-271X", "EPOCH": "2025-12-23T18:39:50.827968", "MEAN_MOTION": 15.3964549, "ECCENTRICITY": 4.594e-05, "INCLINATION": 53.1612, "RA_OF_ASC_NODE": 134.7044, "ARG_OF_PERICENTER": 83.4158, "MEAN_ANOMALY": 276.6899, "EPHEMERIS_TYPE": 0, "CLASSIFICATION_TYPE": "U", "NORAD_CAT_ID": 66638, "ELEMENT_SET_NO": 999, "REV_AT_EPOCH": 591, "BSTAR": 0.0010278206, "MEAN_MOTION_DOT": 0.00040968, "MEAN_MOTION_DDOT": 0}, "tle": {"line1": "1 66638U 25271X   25357.77767162  .00040968  00000+0  10278-2 0  9997", "line2": "2 66638  53.1612 134.7044 0000459  83.4158 276.6899 15.39645490  5917"}}, "geometry": {"type": "Point", "coordinates": [-71.10999687126635, 27.76327723993424]}}, {"type": "Feature", "properties": {"norad_id": 66639, "name": "STARLINK-35908", "group": "last-30-days", "lat": 7.929536675358465, "lon": -53.90831254585431, "alt_km": 447.0085753781732, "timestamp": "2025-12-24T07:45:04.930917+00:00", "meta": {"OBJECT_NAME": "STARLINK-35908", "OBJECT_ID": "2025-271Y", "EPOCH": "2025-12-24T00:00:00.999648", "MEAN_MOTION": 15.39607188, "ECCENTRICITY": 0.00012867, "INCLINATION": 53.1606, "RA_OF_ASC_NODE": 133.6078, "ARG_OF_PERICENTER": 83.6737, "MEAN_ANOMALY": 95.2305, "EPHEMERIS_TYPE": 0, "CLASSIFICATION_TYPE": "U", "NORAD_CAT_ID": 66639, "ELEMENT_SET_NO": 999, "REV_AT_EPOCH": 605, "BSTAR": -4.07172e-06, "MEAN_MOTION_DOT": -5.62e-06, "MEAN_MOTION_DDOT": 0}, "tle": {"line1": "1 66639U 25271Y   25358.00001157 -.00000562  00000+0 -40717-5 0  9992", "line2": "2 66639  53.1606 133.6078 0001286  83.6737  95.2305 15.39607188  6055"}}, "geometry": {"type": "Point", "coordinates": [-53.90831254585431, 7.929536675358465]}}, {"type": "Feature", "properties": {"norad_id": 66640, "name": "STARLINK-35921", "group": "last-30-days", "lat": 44.61007846738891, "lon": -95.50692637972531, "alt_km": 440.63360805985303, "timestamp": "2025-12-24T07:45:04.930928+00:00", "meta": {"OBJECT_NAME": "STARLINK-35921", "OBJECT_ID": "2025-271Z", "EPOCH": "2025-12-23T17:13:03.480960", "MEAN_MOTION": 15.3963332, "ECCENTRICITY": 9.513e-05, "INCLINATION": 53.161, "RA_OF_ASC_NODE": 135.0409, "ARG_OF_PERICENTER": 65.28, "MEAN_ANOMALY": 294.8303, "EPHEMERIS_TYPE": 0, "CLASSIFICATION_TYPE": "U", "NORAD_CAT_ID": 66640, "ELEMENT_SET_NO": 999, "REV_AT_EPOCH": 590, "BSTAR": 0.0015456656, "MEAN_MOTION_DOT": 0.00061957, "MEAN_MOTION_DDOT": 0}, "tle": {"line1": "1 66640U 25271Z   25357.71740140  .00061957  00000+0  15457-2 0  9996", "line2": "2 66640  53.1610 135.0409 0000951  65.2800 294.8303 15.39633320  5906"}}, "geometry": {"type": "Point", "coordinates": [-95.50692637972531, 44.61007846738891]}}, {"type": "Feature", "properties": {"norad_id": 66641, "name": "STARLINK-35923", "group": "last-30-days", "lat": -52.10917177342619, "lon": 57.42269238296573, "alt_km": 435.3225588137957, "timestamp": "2025-12-24T07:45:04.930938+00:00", "meta": {"OBJECT_NAME": "STARLINK-35923", "OBJECT_ID": "2025-271AA", "EPOCH": "2025-12-24T00:00:00.999648", "MEAN_MOTION": 15.45580205, "ECCENTRICITY": 0.00011721, "INCLINATION": 53.1602, "RA_OF_ASC_NODE": 133.4024, "ARG_OF_PERICENTER": 86.4538, "MEAN_ANOMALY": 195.052, "EPHEMERIS_TYPE": 0, "CLASSIFICATION_TYPE": "U", "NORAD_CAT_ID": 66641, "ELEMENT_SET_NO": 999, "REV_AT_EPOCH": 605, "BSTAR": -0.00074540237, "MEAN_MOTION_DOT": -0.00036676, "MEAN_MOTION_DDOT": 0}, "tle": {"line1": "1 66641U 25271AA  25358.00001157 -.00036676  00000+0 -74540-3 0  9999", "line2": "2 66641  53.1602 133.4024 0001172  86.4538 195.0520 15.45580205  6052"}}, "geometry": {"type": "Point", "coordinates": [57.42269238296573, -52.10917177342619]}}, {"type": "Feature", "properties": {"norad_id": 66642, "name": "STARLINK-35926", "group": "last-30-days", "lat": -53.11793196392433, "lon": 44.193312820326064, "alt_km": 447.19662073595373, "timestamp": "2025-12-24T07:45:04.930948+00:00", "meta": {"OBJECT_NAME": "STARLINK-35926", "OBJECT_ID": "2025-271AB", "EPOCH": "2025-12-24T00:00:00.999648", "MEAN_MOTION": 15.43113563, "ECCENTRICITY": 0.0001481, "INCLINATION": 53.1598, "RA_OF_ASC_NODE": 133.4127, "ARG_OF_PERICENTER": 80.2472, "MEAN_ANOMALY": 196.8784, "EPHEMERIS_TYPE": 0, "CLASSIFICATION_TYPE": "U", "NORAD_CAT_ID": 66642, "ELEMENT_SET_NO": 999, "REV_AT_EPOCH": 581, "BSTAR": -0.05245662, "MEAN_MOTION_DOT": -0.02089967, "MEAN_MOTION_DDOT": 0}, "tle": {"line1": "1 66642U 25271AB  25358.00001157 -.02089967  00000+0 -52457-1 0  9994", "line2": "2 66642  53.1598 133.4127 0001481  80.2472 196.8784 15.43113563  5814"}}, "geometry": {"type": "Point", "coordinates": [44.193312820326064, -53.11793196392433]}}, {"type": "Feature", "properties": {"norad_id": 66643, "name": "STARLINK-35918", "group": "last-30-days", "lat": -12.601783411061236, "lon": -38.316696164468205, "alt_km": 449.88531593190874, "timestamp": "2025-12-24T07:45:04.930958+00:00", "meta": {"OBJECT_NAME": "STARLINK-35918", "OBJECT_ID": "2025-271AC", "EPOCH": "2025-12-24T00:00:00.999648", "MEAN_MOTION": 15.39608468, "ECCENTRICITY": 0.00010742, "INCLINATION": 53.1602, "RA_OF_ASC_NODE": 133.5569, "ARG_OF_PERICENTER": 86.2968, "MEAN_ANOMALY": 118.3607, "EPHEMERIS_TYPE": 0, "CLASSIFICATION_TYPE": "U", "NORAD_CAT_ID": 66643, "ELEMENT_SET_NO": 999, "REV_AT_EPOCH": 605, "BSTAR": -7.3262144e-05, "MEAN_MOTION_DOT": -3.327e-05, "MEAN_MOTION_DDOT": 0}, "tle": {"line1": "1 66643U 25271AC  25358.00001157 -.00003327  00000+0 -73262-4 0  9999", "line2": "2 66643  53.1602 133.5569 0001074  86.2968 118.3607 15.39608468  6054"}}, "geometry": {"type": "Point", "coordinates": [-38.316696164468205, -12.601783411061236]}}, {"type": "Feature", "properties": {"norad_id": 66644, "name": "STARLINK-35938", "group": "last-30-days", "lat": -53.13784603680089, "lon": 41.111380078765954, "alt_km": 447.0395692532502, "timestamp": "2025-12-24T07:45:04.930972+00:00", "meta": {"OBJECT_NAME": "STARLINK-35938", "OBJECT_ID": "2025-271AD", "EPOCH": "2025-12-24T00:00:00.999648", "MEAN_MOTION": 15.43126041, "ECCENTRICITY": 0.00013157, "INCLINATION": 53.1599, "RA_OF_ASC_NODE": 133.4167, "ARG_OF_PERICENTER": 94.5466, "MEAN_ANOMALY": 180.7037, "EPHEMERIS_TYPE": 0, "CLASSIFICATION_TYPE": "U", "NORAD_CAT_ID": 66644, "ELEMENT_SET_NO": 999, "REV_AT_EPOCH": 605, "BSTAR": -0.052345327, "MEAN_MOTION_DOT": -0.02086723, "MEAN_MOTION_DDOT": 0}, "tle": {"line1": "1 66644U 25271AD  25358.00001157 -.02086723  00000+0 -52345-1 0  9999", "line2": "2 66644  53.1599 133.4167 0001315  94.5466 180.7037 15.43126041  6053"}}, "geometry": {"type": "Point", "coordinates": [41.111380078765954, -53.13784603680089]}}]}